[{"OBJECT_NAME":"STARLINK-34671","OBJECT_ID":"2025-161U","EPOCH":"2026-03-09T22:34:23.945088","MEAN_MOTION":15.30189709,"ECCENTRICITY":0.00010722,"INCLINATION":53.16,"RA_OF_ASC_NODE":293.3693,"ARG_OF_PERICENTER":91.3889,"MEAN_ANOMALY":268.7234,"EPHEMERIS_TYPE":0,"CLASSIFICATION_TYPE":"U","NORAD_CAT_ID":65033,"ELEMENT_SET_NO":999,"REV_AT_EPOCH":3426,"BSTAR":0.00084642197,"MEAN_MOTION_DOT":0.00024785,"MEAN_MOTION_DDOT":0},{"OBJECT_NAME":"CZ-6A DEB","OBJECT_ID":"2022-151NB","EPOCH":"2026-03-09T18:26:17.609568","MEAN_MOTION":15.22372787,"ECCENTRICITY":0.00267955,"INCLINATION":98.6489,"RA_OF_ASC_NODE":154.0342,"ARG_OF_PERICENTER":180.4296,"MEAN_ANOMALY":179.6918,"EPHEMERIS_TYPE":0,"CLASSIFICATION_TYPE":"U","NORAD_CAT_ID":54601,"ELEMENT_SET_NO":999,"REV_AT_EPOCH":17694,"BSTAR":0.011449911,"MEAN_MOTION_DOT":0.00276508,"MEAN_MOTION_DDOT":0}]
